{
  "type": "FeatureCollection",
  "features": [
    {
      "type": "Feature",
      "properties": {
        "norad_id": 34648,
        "name": "IRIDIUM 33 DEB",
        "group": "iridium-33-debris",
        "lat": -16.496607164085066,
        "lon": 97.26833788361857,
        "alt_km": 787.2835675945353,
        "timestamp": "2025-12-26T23:26:42.509366+00:00",
        "meta_object_name": "IRIDIUM 33 DEB",
        "meta_object_id": "1997-051JZ",
        "meta_epoch": "2025-12-26T17:23:51.360000",
        "meta_mean_motion": 14.11887507,
        "meta_eccentricity": 0.0177886,
        "meta_inclination": 86.3901,
        "meta_ra_of_asc_node": 276.2989,
        "meta_arg_of_pericenter": 254.825,
        "meta_mean_anomaly": 103.3201,
        "meta_ephemeris_type": 0,
        "meta_classification_type": "U",
        "meta_norad_cat_id": 34648,
        "meta_element_set_no": 999,
        "meta_rev_at_epoch": 85158,
        "meta_bstar": 0.0061458,
        "meta_mean_motion_dot": 0.00013057,
        "meta_mean_motion_ddot": 0,
        "tle_line1": "1 34648U 97051JZ  25360.72490000  .00013057  00000+0  61458-2 0  9996",
        "tle_line2": "2 34648  86.3901 276.2989 0177886 254.8250 103.3201 14.11887507851589"
      },
      "geometry": {
        "type": "Point",
        "coordinates": [
          97.26833788361857,
          -16.496607164085066
        ]
      }
    },
    {
      "type": "Feature",
      "properties": {
        "norad_id": 34651,
        "name": "IRIDIUM 33 DEB",
        "group": "iridium-33-debris",
        "lat": -84.36150673438523,
        "lon": -4.29532135204807,
        "alt_km": 840.5508905228171,
        "timestamp": "2025-12-26T23:26:42.509374+00:00",
        "meta_object_name": "IRIDIUM 33 DEB",
        "meta_object_id": "1997-051KC",
        "meta_epoch": "2025-12-25T15:53:57.959232",
        "meta_mean_motion": 14.26027654,
        "meta_eccentricity": 0.0142018,
        "meta_inclination": 86.2827,
        "meta_ra_of_asc_node": 135.0795,
        "meta_arg_of_pericenter": 163.1805,
        "meta_mean_anomaly": 197.4168,
        "meta_ephemeris_type": 0,
        "meta_classification_type": "U",
        "meta_norad_cat_id": 34651,
        "meta_element_set_no": 999,
        "meta_rev_at_epoch": 86080,
        "meta_bstar": 0.0036817,
        "meta_mean_motion_dot": 9.797e-05,
        "meta_mean_motion_ddot": 0,
        "tle_line1": "1 34651U 97051KC  25359.66247638  .00009797  00000+0  36817-2 0  9995",
        "tle_line2": "2 34651  86.2827 135.0795 0142018 163.1805 197.4168 14.26027654860809"
      },
      "geometry": {
        "type": "Point",
        "coordinates": [
          -4.29532135204807,
          -84.36150673438523
        ]
      }
    },
    {
      "type": "Feature",
      "properties": {
        "norad_id": 34652,
        "name": "IRIDIUM 33 DEB",
        "group": "iridium-33-debris",
        "lat": 7.562103829689841,
        "lon": -25.850055201714927,
        "alt_km": 697.48002243888,
        "timestamp": "2025-12-26T23:26:42.509384+00:00",
        "meta_object_name": "IRIDIUM 33 DEB",
        "meta_object_id": "1997-051KD",
        "meta_epoch": "2025-12-25T04:47:40.914240",
        "meta_mean_motion": 14.62168979,
        "meta_eccentricity": 0.0025437,
        "meta_inclination": 86.3321,
        "meta_ra_of_asc_node": 334.4529,
        "meta_arg_of_pericenter": 252.4347,
        "meta_mean_anomaly": 126.6927,
        "meta_ephemeris_type": 0,
        "meta_classification_type": "U",
        "meta_norad_cat_id": 34652,
        "meta_element_set_no": 999,
        "meta_rev_at_epoch": 88666,
        "meta_bstar": 0.0010092,
        "meta_mean_motion_dot": 5.122e-05,
        "meta_mean_motion_ddot": 0,
        "tle_line1": "1 34652U 97051KD  25359.19977910  .00005122  00000+0  10092-2 0  9992",
        "tle_line2": "2 34652  86.3321 334.4529 0025437 252.4347 126.6927 14.62168979886663"
      },
      "geometry": {
        "type": "Point",
        "coordinates": [
          -25.850055201714927,
          7.562103829689841
        ]
      }
    },
    {
      "type": "Feature",
      "properties": {
        "norad_id": 34690,
        "name": "IRIDIUM 33 DEB",
        "group": "iridium-33-debris",
        "lat": -51.8353307161673,
        "lon": -144.5736168373255,
        "alt_km": 718.1390819238513,
        "timestamp": "2025-12-26T23:26:42.509392+00:00",
        "meta_object_name": "IRIDIUM 33 DEB",
        "meta_object_id": "1997-051KM",
        "meta_epoch": "2025-12-26T01:03:16.116192",
        "meta_mean_motion": 14.55142163,
        "meta_eccentricity": 0.00093058,
        "meta_inclination": 86.3773,
        "meta_ra_of_asc_node": 31.2082,
        "meta_arg_of_pericenter": 344.5785,
        "meta_mean_anomaly": 43.326,
        "meta_ephemeris_type": 0,
        "meta_classification_type": "U",
        "meta_norad_cat_id": 34690,
        "meta_element_set_no": 999,
        "meta_rev_at_epoch": 88288,
        "meta_bstar": 0.00040777266,
        "meta_mean_motion_dot": 1.782e-05,
        "meta_mean_motion_ddot": 0,
        "tle_line1": "1 34690U 97051KM  25360.04393653  .00001782  00000+0  40777-3 0  9998",
        "tle_line2": "2 34690  86.3773  31.2082 0009305 344.5785  43.3260 14.55142163882881"
      },
      "geometry": {
        "type": "Point",
        "coordinates": [
          -144.5736168373255,
          -51.8353307161673
        ]
      }
    },
    {
      "type": "Feature",
      "properties": {
        "norad_id": 34693,
        "name": "IRIDIUM 33 DEB",
        "group": "iridium-33-debris",
        "lat": 44.89256602532033,
        "lon": 113.04196518956341,
        "alt_km": 468.9593706882024,
        "timestamp": "2025-12-26T23:26:42.509401+00:00",
        "meta_object_name": "IRIDIUM 33 DEB",
        "meta_object_id": "1997-051KQ",
        "meta_epoch": "2025-12-26T14:13:50.606112",
        "meta_mean_motion": 15.31505662,
        "meta_eccentricity": 0.0008979,
        "meta_inclination": 86.3044,
        "meta_ra_of_asc_node": 296.9258,
        "meta_arg_of_pericenter": 30.4224,
        "meta_mean_anomaly": 148.9709,
        "meta_ephemeris_type": 0,
        "meta_classification_type": "U",
        "meta_norad_cat_id": 34693,
        "meta_element_set_no": 999,
        "meta_rev_at_epoch": 89126,
        "meta_bstar": 0.0051445,
        "meta_mean_motion_dot": 0.00159672,
        "meta_mean_motion_ddot": 0,
        "tle_line1": "1 34693U 97051KQ  25360.59294683  .00159672  00000+0  51445-2 0  9999",
        "tle_line2": "2 34693  86.3044 296.9258 0008979  30.4224 148.9709 15.31505662891269"
      },
      "geometry": {
        "type": "Point",
        "coordinates": [
          113.04196518956341,
          44.89256602532033
        ]
      }
    },
    {
      "type": "Feature",
      "properties": {
        "norad_id": 34696,
        "name": "IRIDIUM 33 DEB",
        "group": "iridium-33-debris",
        "lat": 1.0073887174321174,
        "lon": -159.17140684897177,
        "alt_km": 650.7506961502786,
        "timestamp": "2025-12-26T23:26:42.509410+00:00",
        "meta_object_name": "IRIDIUM 33 DEB",
        "meta_object_id": "1997-051KT",
        "meta_epoch": "2025-12-26T01:36:24.067008",
        "meta_mean_motion": 14.65708991,
        "meta_eccentricity": 0.00738933,
        "meta_inclination": 86.1852,
        "meta_ra_of_asc_node": 21.3194,
        "meta_arg_of_pericenter": 122.6811,
        "meta_mean_anomaly": 297.1917,
        "meta_ephemeris_type": 0,
        "meta_classification_type": "U",
        "meta_norad_cat_id": 34696,
        "meta_element_set_no": 999,
        "meta_rev_at_epoch": 86868,
        "meta_bstar": 0.0037727771,
        "meta_mean_motion_dot": 0.00021447,
        "meta_mean_motion_ddot": 0,
        "tle_line1": "1 34696U 97051KT  25360.06694522  .00021447  00000+0  37728-2 0  9996",
        "tle_line2": "2 34696  86.1852  21.3194 0073893 122.6811 297.1917 14.65708991868683"
      },
      "geometry": {
        "type": "Point",
        "coordinates": [
          -159.17140684897177,
          1.0073887174321174
        ]
      }
    },
    {
      "type": "Feature",
      "properties": {
        "norad_id": 34765,
        "name": "IRIDIUM 33 DEB",
        "group": "iridium-33-debris",
        "lat": -51.70230088182634,
        "lon": -148.69690675864317,
        "alt_km": 759.3213706571369,
        "timestamp": "2025-12-26T23:26:42.509419+00:00",
        "meta_object_name": "IRIDIUM 33 DEB",
        "meta_object_id": "1997-051LJ",
        "meta_epoch": "2025-12-26T02:40:33.184416",
        "meta_mean_motion": 14.40497452,
        "meta_eccentricity": 0.00169729,
        "meta_inclination": 86.3379,
        "meta_ra_of_asc_node": 27.0226,
        "meta_arg_of_pericenter": 166.6572,
        "meta_mean_anomaly": 260.0722,
        "meta_ephemeris_type": 0,
        "meta_classification_type": "U",
        "meta_norad_cat_id": 34765,
        "meta_element_set_no": 999,
        "meta_rev_at_epoch": 87806,
        "meta_bstar": 0.00037005237,
        "meta_mean_motion_dot": 1.198e-05,
        "meta_mean_motion_ddot": 0,
        "tle_line1": "1 34765U 97051LJ  25360.11149519  .00001198  00000+0  37005-3 0  9990",
        "tle_line2": "2 34765  86.3379  27.0226 0016972 166.6572 260.0722 14.40497452878068"
      },
      "geometry": {
        "type": "Point",
        "coordinates": [
          -148.69690675864317,
          -51.70230088182634
        ]
      }
    }
  ]
}